# Made by eph2tle, compiled Feb  6 2024 12:03:08
# Run at Thu Feb 22 15:00:40 2024
#
#    The following TLEs (Two-Line Elements) were generated by fitting
# a numerically-integrated ephemeris,  based on the orbit given below,
# to the SDP4/SGP4 models.  Each TLE is good for the interval between
# its epoch and the epoch of the subsequent TLE (usually one day).
# The maximum deviation between the numerically integrated ephemerides
# and the TLE-based ephemeris, in kilometers,  is given for each TLE
# as the "worst residual".
#
#    This fitting is done using the 'eph2tle' code packaged with Find_Orb.
# The code has details on how the TLEs were computed :
#
#    https://github.com/Bill-Gray/find_orb/eph2tle.cpp
#
#    Be warned:  the error given is that between the numerically
# integrated ephems and the TLE model.  There will usually be at
# least some additional difference between the ephems and the actual
# motion of the satellite,  especially if the ephemerides are based
# on a short arc.  If the following orbital elements say something
# like "[based on] 10 observations 2015 Jan. 1-13",  and the TLEs
# are for 2015 May,  the extrapolation may be tenuous at best.  If
# your application requires a specific level of accuracy,  you may
# want to contact me;  I can give you some idea as to the fit of the
# underlying data (and possibly TLEs based on newer data).
#
#   You can usually find the underlying observational data,  and the
# fitted orbit,  residuals,  ephemerides,  and sometimes some comments
# about the object,  among the pages listed at
#
#    https://www.projectpluto.com/pluto/mpecs/pseudo.htm
#
#    WARNING:  for this object,  "normal" TLEs cannot be fitted.  (This
# usually means an object with an hyperbolic or nearly-parabolic orbit.)
# For this and similar cases,   an alternative model is used,  in which
# most of the traditional TLE data is replaced by six signed 8-digit hex
# numbers.  These six numbers are a state vector,  numerically integrated
# using a simplified force model.  This is necessary for objects at L2 or
# L1,  and sometimes for objects in high orbits where the SDP4/SGP4 model
# fails.  Some documentation is in 'get_el.cpp' in the source code at
# https://www.github.com/Bill-Gray/sat_code ; look for 'hex' in that file,
# with the actual integration done in 'sdp4.cpp'.  But be aware:  it's my
# own extension,  doesn't work with other code,  and is therefore used
# only when necessary.
#
#    Also,  if you use a TLE outside the "correct" time range (between
# its MJD and that of the next TLE),  all bets are off.  I've carefully
# computed and minimized the worst error over the "correct" time frame,
# but the ephemeris may (or may not) diverge wildly outside of it.
#
# Ephem range: 60355.500000 60401.500000 1.000000
# Created Thu Feb 22 15:00:36 2024
# Ephemeris start: 15 Feb 2024 12:00:00
# Ephemeris end:    1 Apr 2024 12:00:00
# Times are all TDT
# Positions/velocities are in ecliptic J2000
# Orbital elements:  2024-030B = NORAD 58964 = Falcon 9-300 Stage 2
#    Perigee 2024 Feb 15.2838464 +/- 4.16e-6 TT =  6:48:44.32 (JD 2460355.7838464)
# Epoch 2024 Feb 16.0 TT = JDT 2460356.5                           Find_Orb
# M  23.0840061221 +/- 0.00012        (J2000 equator)
# n  32.2333158823 +/- 1.4e-5         Peri.  239.7641984 +/- 0.00008
# a211057.20539 +/- 0.061             Node    67.8137888 +/- 0.00008
# e   0.968753459 +/- 1.39e-7         Incl.   28.6681072 +/- 0.000032
# P  11.1684d                H 26.66  G  0.15   U  5.2
# q 6594.8074325 +/- 0.0307    Q 415519.60336 +/- 0.101
# 161 of 170 observations 2024 Feb. 15-22; mean residual 0".478
#
# 1 NoradU COSPAR   Epoch.epoch     dn/dt/2  d2n/dt2/6 BSTAR    T El# C
# 2 NoradU Inclina RAAscNode Eccent  ArgPeri MeanAno  MeanMotion Rev# C

# Worst residual: 0.32 km
# MJD 60355.500000 (2024 Feb 15 12:00)
2024-030B = NORAD 58964 = Falcon 9-300 Stage 2
1 58964U 24030B   24046.49919926 -0002U81C +0017V7YV +000AD2LZH 22448
2 58964                          -00063C2D +000F6LAZ +00065TDY     03

# Worst residual: 0.62 km
# MJD 60356.500000 (2024 Feb 16 12:00)
2024-030B = NORAD 58964 = Falcon 9-300 Stage 2
1 58964U 24030B   24047.49919926 -00199ZRH +003AI5XB +001AYJNDH 22449
2 58964                          -00040RPI +0005L09S +0003607B     09

# Max error 0.01

# Worst residual: 0.72 km
# MJD 60357.500000 (2024 Feb 17 12:00)
2024-030B = NORAD 58964 = Falcon 9-300 Stage 2
1 58964U 24030B   24048.49919926 -002350I9 +004B3TZG +001XIDUKH 22449
2 58964                          -0002YTDE +00035V1P +00025BRO     03

# Worst residual: 1.44 km
# MJD 60358.500000 (2024 Feb 18 12:00)
2024-030B = NORAD 58964 = Falcon 9-300 Stage 2
1 58964U 24030B   24049.49919926 -002PBFCG +004VRN3D +002D0F3UH 22447
2 58964                          -00026WHH +0001PFJ5 +0001GZQZ     00

# Worst residual: 5.63 km
# MJD 60359.500000 (2024 Feb 19 12:00)
2024-030B = NORAD 58964 = Falcon 9-300 Stage 2
1 58964U 24030B   24050.49919926 -00358WCJ +0055L0SW +002NB7HCH 22440
2 58964                          -0001HZ8D +0000LQUB +0000XC37     04

# Worst residual: 155.33 km
# MJD 60360.500000 (2024 Feb 20 12:00)
2024-030B = NORAD 58964 = Falcon 9-300 Stage 2
1 58964U 24030B   24051.49919926 -003F34V4 +0056OMCY +002T6IQVH 22449
2 58964                          -0000R1H7 -0000BSU7 +0000FUGZ     01

# Max error 0.2

# Worst residual: 2768.23 km
# MJD 60361.500000 (2024 Feb 21 12:00)
2024-030B = NORAD 58964 = Falcon 9-300 Stage 2
1 58964U 24030B   24052.49919926 -003FR1V5 +0050LBD0 +002V1IMXH 22444
2 58964                          +0001LDF1 -0000V8AS -000031CL     00

# Worst residual: 12.39 km
# MJD 60362.500000 (2024 Feb 22 12:00)
2024-030B = NORAD 58964 = Falcon 9-300 Stage 2
1 58964U 24030B   24053.49919926 -0047MZXI +004BXJ78 +0017YYVDH 22446
2 58964                          -00042W2J -0003NLAL -0006Z29E     05

# Worst residual: 2.86 km
# MJD 60363.500000 (2024 Feb 23 12:00)
2024-030B = NORAD 58964 = Falcon 9-300 Stage 2
1 58964U 24030B   24054.49919926 -00528843 +003C36LP -000FVIDOH 22442
2 58964                          -0002Y85K -0004LVOM -0006UVX3     05

# Worst residual: 1.21 km
# MJD 60364.500000 (2024 Feb 24 12:00)
2024-030B = NORAD 58964 = Falcon 9-300 Stage 2
1 58964U 24030B   24055.49919926 -005M96TO +00256ZGU -0021QL8GH 22445
2 58964                          -0001OU2D -00059CU4 -0006HKSL     04

# Worst residual: 0.64 km
# MJD 60365.500000 (2024 Feb 25 12:00)
2024-030B = NORAD 58964 = Falcon 9-300 Stage 2
1 58964U 24030B   24056.49919926 -005VUTIZ +000U91RP -003JD3PMH 22443
2 58964                          -0000KJXH -0005JUJC -0005WHUE     07

# Worst residual: 0.40 km
# MJD 60366.500000 (2024 Feb 26 12:00)
2024-030B = NORAD 58964 = Falcon 9-300 Stage 2
1 58964U 24030B   24057.49919926 -005WVATD -000HYFV4 -004VKISQH 22447
2 58964                          +0000AJ4S -0005KN8H -000598MX     05

# Worst residual: 0.20 km
# MJD 60367.500000 (2024 Feb 27 12:00)
2024-030B = NORAD 58964 = Falcon 9-300 Stage 2
1 58964U 24030B   24058.49919926 -005RHXX3 -001TMI77 -0062BDHRH 22446
2 58964                          +0000WXWM -0005FYWQ -0004ND23     00

# Worst residual: 0.22 km
# MJD 60368.500000 (2024 Feb 28 12:00)
2024-030B = NORAD 58964 = Falcon 9-300 Stage 2
1 58964U 24030B   24059.49919926 -005HL314 -0033TMXP -007449ILH 22449
2 58964                          +0001CQLD -00058R9J -000444HO     01

# Worst residual: 0.32 km
# MJD 60369.500000 (2024 Feb 29 12:00)
2024-030B = NORAD 58964 = Falcon 9-300 Stage 2
1 58964U 24030B   24060.49919926 -0054H2P0 -004C5NZH -0081MUCWH 22447
2 58964                          +0001NVT1 -00050ME6 -0003NLTQ     02

# Worst residual: 0.46 km
# MJD 60370.500000 (2024 Mar  1 12:00)
2024-030B = NORAD 58964 = Falcon 9-300 Stage 2
1 58964U 24030B   24061.49919926 -004P3GD1 -005IIG6J -008VHBC6H 22442
2 58964                          +0001VTUV -0004SCN8 -00039H7J     08

# Worst residual: 0.62 km
# MJD 60371.500000 (2024 Mar  2 12:00)
2024-030B = NORAD 58964 = Falcon 9-300 Stage 2
1 58964U 24030B   24062.49919926 -00483BB8 -006MWK0F -009M6LP9H 22443
2 58964                          +00021K7F -0004KAQT -0002XCBN     02

# Worst residual: 0.75 km
# MJD 60372.500000 (2024 Mar  3 12:00)
2024-030B = NORAD 58964 = Falcon 9-300 Stage 2
1 58964U 24030B   24063.49919926 -003PWSZU -007PELCZ -00AA6CJ8H 22445
2 58964                          +00025PYY -0004CLWX -0002MUF4     03

# Worst residual: 0.79 km
# MJD 60373.500000 (2024 Mar  4 12:00)
2024-030B = NORAD 58964 = Falcon 9-300 Stage 2
1 58964U 24030B   24064.49919926 -0036VLIK -008Q3YR7 -00AVTEDWH 22449
2 58964                          +00028PZC -00045C0Z -0002DOYE     07

# Worst residual: 0.67 km
# MJD 60374.500000 (2024 Mar  5 12:00)
2024-030B = NORAD 58964 = Falcon 9-300 Stage 2
1 58964U 24030B   24065.49919926 -002N8H3F -009P4BYL -00BFEB8GH 22447
2 58964                          +0002ATW5 -0003YHK4 -00025NAX     07

# Worst residual: 0.86 km
# MJD 60375.500000 (2024 Mar  6 12:00)
2024-030B = NORAD 58964 = Falcon 9-300 Stage 2
1 58964U 24030B   24066.49919926 -00236ARW -00AMJE3H -00BX5RVGH 22443
2 58964                          +0002C8CB -0003S2GT -0001YIIW     02

# Worst residual: 0.81 km
# MJD 60376.500000 (2024 Mar  7 12:00)
2024-030B = NORAD 58964 = Falcon 9-300 Stage 2
1 58964U 24030B   24067.49919926 -001IUKAI -00BIGTGB -00CDB014H 22441
2 58964                          +0002D2AB -0003M2LR -0001S58D     09

# Worst residual: 0.51 km
# MJD 60377.500000 (2024 Mar  8 12:00)
2024-030B = NORAD 58964 = Falcon 9-300 Stage 2
1 58964U 24030B   24068.49919926 -000YDOQR -00CD096R -00CS02VPH 22443
2 58964                          +0002DFTA -0003GHVQ -0001MFDY     02

# Worst residual: 0.34 km
# MJD 60378.500000 (2024 Mar  9 12:00)
2024-030B = NORAD 58964 = Falcon 9-300 Stage 2
1 58964U 24030B   24069.49919926 -000DV5SL -00D69BT3 -00D5E9DIH 22444
2 58964                          +0002DGMV -0003BC7T -0001H9Z2     00

